[{"OBJECT_NAME":"STARLINK-30428","OBJECT_ID":"2023-146R","EPOCH":"2026-03-09T22:05:47.616864","MEAN_MOTION":15.0346827,"ECCENTRICITY":0.00017205,"INCLINATION":43.0019,"RA_OF_ASC_NODE":311.8639,"ARG_OF_PERICENTER":186.633,"MEAN_ANOMALY":173.449,"EPHEMERIS_TYPE":0,"CLASSIFICATION_TYPE":"U","NORAD_CAT_ID":57906,"ELEMENT_SET_NO":999,"REV_AT_EPOCH":13604,"BSTAR":0.0083257401,"MEAN_MOTION_DOT":0.00117025,"MEAN_MOTION_DDOT":0},{"OBJECT_NAME":"CZ-4C R\/B","OBJECT_ID":"2020-103C","EPOCH":"2026-03-09T22:29:51.645120","MEAN_MOTION":15.00867026,"ECCENTRICITY":0.00868382,"INCLINATION":98.3813,"RA_OF_ASC_NODE":98.2397,"ARG_OF_PERICENTER":305.3689,"MEAN_ANOMALY":53.9441,"EPHEMERIS_TYPE":0,"CLASSIFICATION_TYPE":"U","NORAD_CAT_ID":47304,"ELEMENT_SET_NO":999,"REV_AT_EPOCH":28329,"BSTAR":0.00023135286,"MEAN_MOTION_DOT":3.11e-5,"MEAN_MOTION_DDOT":0}]
